[{"OBJECT_NAME":"ICEYE-X31","OBJECT_ID":"2023-174AJ","EPOCH":"2026-03-09T23:06:20.433600","MEAN_MOTION":15.30950809,"ECCENTRICITY":0.00015021,"INCLINATION":97.3851,"RA_OF_ASC_NODE":144.9524,"ARG_OF_PERICENTER":332.6589,"MEAN_ANOMALY":27.4572,"EPHEMERIS_TYPE":0,"CLASSIFICATION_TYPE":"U","NORAD_CAT_ID":58288,"ELEMENT_SET_NO":999,"REV_AT_EPOCH":12955,"BSTAR":0.00066288467,"MEAN_MOTION_DOT":0.00019777,"MEAN_MOTION_DDOT":0},{"OBJECT_NAME":"STARLINK-34221","OBJECT_ID":"2025-130R","EPOCH":"2026-03-09T10:31:23.847744","MEAN_MOTION":15.30194722,"ECCENTRICITY":0.00013965,"INCLINATION":53.1602,"RA_OF_ASC_NODE":89.7733,"ARG_OF_PERICENTER":76.5586,"MEAN_ANOMALY":283.5571,"EPHEMERIS_TYPE":0,"CLASSIFICATION_TYPE":"U","NORAD_CAT_ID":64453,"ELEMENT_SET_NO":999,"REV_AT_EPOCH":4066,"BSTAR":0.0009795642,"MEAN_MOTION_DOT":0.0002876,"MEAN_MOTION_DDOT":0}]
